KUIPER-00061            
1 64521U 25134X   26015.62475360 -.00000719  00000+0 -65459-4 0  9991
2 64521  51.9006 102.7369 0000819 112.6865 247.4184 14.79855938 32279
KUIPER-00062            
1 64522U 25134Y   26015.66672456  .00002343  00000+0  29791-3 0  9992
2 64522  51.8980 106.2796 0007342 112.9312 247.2428 14.85137786 32248
KUIPER-00063            
1 64523U 25134Z   26015.68144524  .00002626  00000+0  37357-3 0  9996
2 64523  51.9022 112.4904 0000748  34.8894 325.2117 14.79910378 32158
KUIPER-00064            
1 64524U 25134AA  26015.54907045 -.00024371  00000+0 -31862-2 0  9994
2 64524  51.9033 110.4964 0006526 178.1570 181.9417 14.79824201 32179
KUIPER-00065            
1 64525U 25134AB  26015.67808116  .00002665  00000+0  37769-3 0  9991
2 64525  51.9034 115.0725 0005819 109.1578 251.0014 14.80024698 32102
KUIPER-00066            
1 64526U 25134AC  26015.46849715  .00005586  00000+0  25702-3 0  9998
2 64526  51.8876  75.5706 0000967  51.9918 308.1149 15.21785403 32653
KUIPER-00069            
1 64816U 25151A   26015.77060949  .00001774  00000+0  26158-3 0  9998
2 64816  51.9006 154.6221 0003748 117.5630 242.5713 14.79951369 28923
KUIPER-00070            
1 64817U 25151B   26015.84493019  .00051729  00000+0  67294-2 0  9995
2 64817  51.9003 179.2444 0010351  88.7782 271.4366 14.80106361 28590
